{
  "type": "FeatureCollection",
  "features": [
    {
      "type": "Feature",
      "properties": {
        "norad_id": 40069,
        "name": "METEOR-M 2",
        "group": "weather",
        "lat": 5.598780320849083,
        "lon": -23.304306922582885,
        "alt_km": 826.680595086912,
        "timestamp": "2025-12-26T11:25:44.866031+00:00",
        "meta_object_name": "METEOR-M 2",
        "meta_object_id": "2014-037A",
        "meta_epoch": "2025-12-26T04:38:41.144064",
        "meta_mean_motion": 14.21392793,
        "meta_eccentricity": 0.0005673,
        "meta_inclination": 98.4922,
        "meta_ra_of_asc_node": 337.263,
        "meta_arg_of_pericenter": 167.9912,
        "meta_mean_anomaly": 192.1402,
        "meta_ephemeris_type": 0,
        "meta_classification_type": "U",
        "meta_norad_cat_id": 40069,
        "meta_element_set_no": 999,
        "meta_rev_at_epoch": 59474,
        "meta_bstar": 0.00023551,
        "meta_mean_motion_dot": 4.72e-06,
        "meta_mean_motion_ddot": 0,
        "tle_line1": "1 40069U 14037A   25360.19353176  .00000472  00000+0  23551-3 0  9996",
        "tle_line2": "2 40069  98.4922 337.2630 0005673 167.9912 192.1402 14.21392793594744"
      },
      "geometry": {
        "type": "Point",
        "coordinates": [
          -23.304306922582885,
          5.598780320849083
        ]
      }
    },
    {
      "type": "Feature",
      "properties": {
        "norad_id": 40267,
        "name": "HIMAWARI-8",
        "group": "weather",
        "lat": -0.000895974345145671,
        "lon": 47.32686032383895,
        "alt_km": 35787.324085531305,
        "timestamp": "2025-12-26T11:25:44.866041+00:00",
        "meta_object_name": "HIMAWARI-8",
        "meta_object_id": "2014-060A",
        "meta_epoch": "2025-12-26T00:44:38.655744",
        "meta_mean_motion": 1.00270789,
        "meta_eccentricity": 9.99e-05,
        "meta_inclination": 0.0428,
        "meta_ra_of_asc_node": 196.6359,
        "meta_arg_of_pericenter": 108.3794,
        "meta_mean_anomaly": 301.5944,
        "meta_ephemeris_type": 0,
        "meta_classification_type": "U",
        "meta_norad_cat_id": 40267,
        "meta_element_set_no": 999,
        "meta_rev_at_epoch": 4102,
        "meta_bstar": 0,
        "meta_mean_motion_dot": -2.54e-06,
        "meta_mean_motion_ddot": 0,
        "tle_line1": "1 40267U 14060A   25360.03100296 -.00000254  00000+0  00000+0 0  9997",
        "tle_line2": "2 40267   0.0428 196.6359 0000999 108.3794 301.5944  1.00270789 41020"
      },
      "geometry": {
        "type": "Point",
        "coordinates": [
          47.32686032383895,
          -0.000895974345145671
        ]
      }
    },
    {
      "type": "Feature",
      "properties": {
        "norad_id": 40367,
        "name": "FENGYUN 2G",
        "group": "weather",
        "lat": -4.858147654080901,
        "lon": 6.035839714030991,
        "alt_km": 35787.59044795667,
        "timestamp": "2025-12-26T11:25:44.866052+00:00",
        "meta_object_name": "FENGYUN 2G",
        "meta_object_id": "2014-090A",
        "meta_epoch": "2025-12-26T01:31:24.188160",
        "meta_mean_motion": 1.0028183,
        "meta_eccentricity": 0.0001733,
        "meta_inclination": 5.1989,
        "meta_ra_of_asc_node": 74.9322,
        "meta_arg_of_pericenter": 171.0452,
        "meta_mean_anomaly": 330.9574,
        "meta_ephemeris_type": 0,
        "meta_classification_type": "U",
        "meta_norad_cat_id": 40367,
        "meta_element_set_no": 999,
        "meta_rev_at_epoch": 4026,
        "meta_bstar": 0,
        "meta_mean_motion_dot": -2.82e-06,
        "meta_mean_motion_ddot": 0,
        "tle_line1": "1 40367U 14090A   25360.06347440 -.00000282  00000+0  00000+0 0  9999",
        "tle_line2": "2 40367   5.1989  74.9322 0001733 171.0452 330.9574  1.00281830 40261"
      },
      "geometry": {
        "type": "Point",
        "coordinates": [
          6.035839714030991,
          -4.858147654080901
        ]
      }
    },
    {
      "type": "Feature",
      "properties": {
        "norad_id": 40732,
        "name": "METEOSAT-11 (MSG-4)",
        "group": "weather",
        "lat": -1.1397756690065741,
        "lon": -84.1808962061565,
        "alt_km": 35785.08732949964,
        "timestamp": "2025-12-26T11:25:44.866062+00:00",
        "meta_object_name": "METEOSAT-11 (MSG-4)",
        "meta_object_id": "2015-034A",
        "meta_epoch": "2025-12-25T16:31:52.264704",
        "meta_mean_motion": 1.00271545,
        "meta_eccentricity": 6.999e-05,
        "meta_inclination": 2.7688,
        "meta_ra_of_asc_node": 71.966,
        "meta_arg_of_pericenter": 136.703,
        "meta_mean_anomaly": 142.9271,
        "meta_ephemeris_type": 0,
        "meta_classification_type": "U",
        "meta_norad_cat_id": 40732,
        "meta_element_set_no": 999,
        "meta_rev_at_epoch": 547,
        "meta_bstar": 0,
        "meta_mean_motion_dot": 8.2e-07,
        "meta_mean_motion_ddot": 0,
        "tle_line1": "1 40732U 15034A   25359.68879936  .00000082  00000+0  00000+0 0  9997",
        "tle_line2": "2 40732   2.7688  71.9660 0000699 136.7030 142.9271  1.00271545  5479"
      },
      "geometry": {
        "type": "Point",
        "coordinates": [
          -84.1808962061565,
          -1.1397756690065741
        ]
      }
    },
    {
      "type": "Feature",
      "properties": {
        "norad_id": 41105,
        "name": "ELEKTRO-L 2",
        "group": "weather",
        "lat": 0.0415166353098881,
        "lon": -107.83066494110894,
        "alt_km": 35772.64759688158,
        "timestamp": "2025-12-26T11:25:44.866074+00:00",
        "meta_object_name": "ELEKTRO-L 2",
        "meta_object_id": "2015-074A",
        "meta_epoch": "2025-12-26T04:33:21.945312",
        "meta_mean_motion": 1.00271693,
        "meta_eccentricity": 0.000362,
        "meta_inclination": 6.2573,
        "meta_ra_of_asc_node": 72.6685,
        "meta_arg_of_pericenter": 207.9868,
        "meta_mean_anomaly": 228.1548,
        "meta_ephemeris_type": 0,
        "meta_classification_type": "U",
        "meta_norad_cat_id": 41105,
        "meta_element_set_no": 999,
        "meta_rev_at_epoch": 3677,
        "meta_bstar": 0,
        "meta_mean_motion_dot": -9.7e-07,
        "meta_mean_motion_ddot": 0,
        "tle_line1": "1 41105U 15074A   25360.18983733 -.00000097  00000+0  00000+0 0  9991",
        "tle_line2": "2 41105   6.2573  72.6685 0003620 207.9868 228.1548  1.00271693 36773"
      },
      "geometry": {
        "type": "Point",
        "coordinates": [
          -107.83066494110894,
          0.0415166353098881
        ]
      }
    },
    {
      "type": "Feature",
      "properties": {
        "norad_id": 41752,
        "name": "INSAT-3DR",
        "group": "weather",
        "lat": -0.12808797530248958,
        "lon": -19.207988386948408,
        "alt_km": 35764.32005330008,
        "timestamp": "2025-12-26T11:25:44.866084+00:00",
        "meta_object_name": "INSAT-3DR",
        "meta_object_id": "2016-054A",
        "meta_epoch": "2025-12-24T15:09:51.705216",
        "meta_mean_motion": 1.00271379,
        "meta_eccentricity": 0.00142635,
        "meta_inclination": 0.1198,
        "meta_ra_of_asc_node": 86.2568,
        "meta_arg_of_pericenter": 185.6475,
        "meta_mean_anomaly": 122.9543,
        "meta_ephemeris_type": 0,
        "meta_classification_type": "U",
        "meta_norad_cat_id": 41752,
        "meta_element_set_no": 999,
        "meta_rev_at_epoch": 3406,
        "meta_bstar": 0,
        "meta_mean_motion_dot": -5.6e-07,
        "meta_mean_motion_ddot": 0,
        "tle_line1": "1 41752U 16054A   25358.63184844 -.00000056  00000+0  00000+0 0  9996",
        "tle_line2": "2 41752   0.1198  86.2568 0014263 185.6475 122.9543  1.00271379 34066"
      },
      "geometry": {
        "type": "Point",
        "coordinates": [
          -19.207988386948408,
          -0.12808797530248958
        ]
      }
    },
    {
      "type": "Feature",
      "properties": {
        "norad_id": 41836,
        "name": "HIMAWARI-9",
        "group": "weather",
        "lat": 0.0005134407726239576,
        "lon": 47.448221267618536,
        "alt_km": 35786.28235130494,
        "timestamp": "2025-12-26T11:25:44.866095+00:00",
        "meta_object_name": "HIMAWARI-9",
        "meta_object_id": "2016-064A",
        "meta_epoch": "2025-12-26T00:44:38.655744",
        "meta_mean_motion": 1.00271993,
        "meta_eccentricity": 0.0001079,
        "meta_inclination": 0.0124,
        "meta_ra_of_asc_node": 80.1849,
        "meta_arg_of_pericenter": 234.8379,
        "meta_mean_anomaly": 291.7052,
        "meta_ephemeris_type": 0,
        "meta_classification_type": "U",
        "meta_norad_cat_id": 41836,
        "meta_element_set_no": 999,
        "meta_rev_at_epoch": 3347,
        "meta_bstar": 0,
        "meta_mean_motion_dot": -2.53e-06,
        "meta_mean_motion_ddot": 0,
        "tle_line1": "1 41836U 16064A   25360.03100296 -.00000253  00000+0  00000+0 0  9995",
        "tle_line2": "2 41836   0.0124  80.1849 0001079 234.8379 291.7052  1.00271993 33479"
      },
      "geometry": {
        "type": "Point",
        "coordinates": [
          47.448221267618536,
          0.0005134407726239576
        ]
      }
    }
  ]
}